start=new Date('2021-11-22T00:00:00.000Z').valueOf();
sats=[{"SEMIMAJOR_AXIS":"6896.144","DECAY_DATE":null,"ECCENTRICITY":"0.00025420","MEAN_ELEMENT_THEORY":"SGP4","FILE":"3220483","ELEMENT_SET_NO":"999","NORAD_CAT_ID":"48880","GP_ID":"190176868","SITE":"AFETR","ARG_OF_PERICENTER":"194.1347","OBJECT_ID":"2021-059B","EPHEMERIS_TYPE":"0","PERIAPSIS":"516.256","CLASSIFICATION_TYPE":"U","LAUNCH_DATE":"2021-06-30","COUNTRY_CODE":"US","BSTAR":"-0.00122310000000","RCS_SIZE":"LARGE","REF_FRAME":"TEME","TLE_LINE1":"1 48880U 21059B   21325.58334491 -.00023451  00000-0 -12231-2 0  9993","RA_OF_ASC_NODE":"92.9903","REV_AT_EPOCH":"2303","OBJECT_NAME":"STARLINK-3004","MEAN_MOTION_DDOT":"0.0000000000000","EPOCH":"2021-11-21T14:00:01.000224","MEAN_MOTION":"15.15979383","TLE_LINE2":"2 48880  97.5263  92.9903 0002542 194.1347 352.3074 15.15979383 23039","MEAN_ANOMALY":"352.3074","TIME_SYSTEM":"UTC","PERIOD":"94.988","CENTER_NAME":"EARTH","APOAPSIS":"519.762","MEAN_MOTION_DOT":"-0.00023451","INCLINATION":"97.5263","OBJECT_TYPE":"PAYLOAD"},{"MEAN_ELEMENT_THEORY":"SGP4","ECCENTRICITY":"0.00038660","DECAY_DATE":null,"SEMIMAJOR_AXIS":"6896.161","ELEMENT_SET_NO":"999","FILE":"3220492","GP_ID":"190177905","NORAD_CAT_ID":"48881","SITE":"AFETR","OBJECT_ID":"2021-059C","ARG_OF_PERICENTER":"176.2421","PERIAPSIS":"515.360","EPHEMERIS_TYPE":"0","CLASSIFICATION_TYPE":"U","LAUNCH_DATE":"2021-06-30","BSTAR":"-0.00119650000000","COUNTRY_CODE":"US","TLE_LINE1":"1 48881U 21059C   21325.58334491 -.00022943  00000-0 -11965-2 0  9992","REF_FRAME":"TEME","RCS_SIZE":"LARGE","OBJECT_NAME":"STARLINK-3005","MEAN_MOTION_DDOT":"0.0000000000000","REV_AT_EPOCH":"2303","RA_OF_ASC_NODE":"92.9976","EPOCH":"2021-11-21T14:00:01.000224","TIME_SYSTEM":"UTC","MEAN_ANOMALY":"2.2098","MEAN_MOTION":"15.15973810","TLE_LINE2":"2 48881  97.5268  92.9976 0003866 176.2421   2.2098 15.15973810 23035","PERIOD":"94.988","INCLINATION":"97.5268","OBJECT_TYPE":"PAYLOAD","MEAN_MOTION_DOT":"-0.00022943","APOAPSIS":"520.692","CENTER_NAME":"EARTH"},{"EPOCH":"2021-11-21T14:00:01.000224","TIME_SYSTEM":"UTC","MEAN_ANOMALY":"167.2569","TLE_LINE2":"2 49131  69.9984 294.4681 0003359 286.0552 167.2569 15.69781987  3692","MEAN_MOTION":"15.69781987","PERIOD":"91.732","OBJECT_TYPE":"PAYLOAD","INCLINATION":"69.9984","MEAN_MOTION_DOT":"-0.00027448","CENTER_NAME":"EARTH","APOAPSIS":"361.786","LAUNCH_DATE":"2021-09-14","BSTAR":"-0.00022859000000","COUNTRY_CODE":"US","TLE_LINE1":"1 49131U 21082B   21325.58334491 -.00027448  00000-0 -22859-3 0  9997","REF_FRAME":"TEME","RCS_SIZE":"LARGE","OBJECT_NAME":"STARLINK-3096","MEAN_MOTION_DDOT":"0.0000000000000","REV_AT_EPOCH":"369","RA_OF_ASC_NODE":"294.4681","SITE":"AFWTR","OBJECT_ID":"2021-082B","ARG_OF_PERICENTER":"286.0552","PERIAPSIS":"357.260","EPHEMERIS_TYPE":"0","CLASSIFICATION_TYPE":"U","MEAN_ELEMENT_THEORY":"SGP4","ECCENTRICITY":"0.00033590","DECAY_DATE":null,"SEMIMAJOR_AXIS":"6737.658","ELEMENT_SET_NO":"999","FILE":"3220686","GP_ID":"190206065","NORAD_CAT_ID":"49131"},{"OBJECT_ID":"2021-082C","ARG_OF_PERICENTER":"281.8594","SITE":"AFWTR","CLASSIFICATION_TYPE":"U","EPHEMERIS_TYPE":"0","PERIAPSIS":"408.041","ECCENTRICITY":"0.00034710","MEAN_ELEMENT_THEORY":"SGP4","SEMIMAJOR_AXIS":"6788.533","DECAY_DATE":null,"GP_ID":"190211381","NORAD_CAT_ID":"49132","ELEMENT_SET_NO":"999","FILE":"3220919","MEAN_ANOMALY":"215.7857","TIME_SYSTEM":"UTC","MEAN_MOTION":"15.52168614","TLE_LINE2":"2 49132  70.0002 294.0013 0003471 281.8594 215.7857 15.52168614 10882","EPOCH":"2021-11-21T22:00:00.999936","OBJECT_TYPE":"PAYLOAD","INCLINATION":"70.0002","APOAPSIS":"412.754","CENTER_NAME":"EARTH","MEAN_MOTION_DOT":"-0.00655914","PERIOD":"92.773","COUNTRY_CODE":"US","BSTAR":"-0.01171300000000","LAUNCH_DATE":"2021-09-14","REV_AT_EPOCH":"1088","MEAN_MOTION_DDOT":"0.0000000000000","OBJECT_NAME":"STARLINK-3090","RA_OF_ASC_NODE":"294.0013","TLE_LINE1":"1 49132U 21082C   21325.91667824 -.00655914  00000-0 -11713-1 0  9994","RCS_SIZE":"LARGE","REF_FRAME":"TEME"},{"ECCENTRICITY":"0.00034850","MEAN_ELEMENT_THEORY":"SGP4","SEMIMAJOR_AXIS":"6787.121","DECAY_DATE":null,"GP_ID":"190205939","NORAD_CAT_ID":"49133","ELEMENT_SET_NO":"999","FILE":"3220686","OBJECT_ID":"2021-082D","ARG_OF_PERICENTER":"276.0020","SITE":"AFWTR","CLASSIFICATION_TYPE":"U","EPHEMERIS_TYPE":"0","PERIAPSIS":"406.620","COUNTRY_CODE":"US","BSTAR":"-0.01154500000000","LAUNCH_DATE":"2021-09-14","REV_AT_EPOCH":"369","OBJECT_NAME":"STARLINK-3077","MEAN_MOTION_DDOT":"0.0000000000000","RA_OF_ASC_NODE":"294.9153","TLE_LINE1":"1 49133U 21082D   21325.58334491 -.00657768  00000-0 -11545-1 0  9991","RCS_SIZE":"LARGE","REF_FRAME":"TEME","MEAN_ANOMALY":"164.2877","TIME_SYSTEM":"UTC","MEAN_MOTION":"15.52653034","TLE_LINE2":"2 49133  69.9998 294.9153 0003485 276.0020 164.2877 15.52653034  3699","EPOCH":"2021-11-21T14:00:01.000224","INCLINATION":"69.9998","OBJECT_TYPE":"PAYLOAD","APOAPSIS":"411.351","CENTER_NAME":"EARTH","MEAN_MOTION_DOT":"-0.00657768","PERIOD":"92.744"},{"TLE_LINE2":"2 49134  69.9998 294.9044 0003456 276.0248 179.5617 15.52808715  3698","MEAN_MOTION":"15.52808715","TIME_SYSTEM":"UTC","MEAN_ANOMALY":"179.5617","EPOCH":"2021-11-21T14:00:01.000224","MEAN_MOTION_DOT":"-0.00657809","APOAPSIS":"410.877","CENTER_NAME":"EARTH","OBJECT_TYPE":"PAYLOAD","INCLINATION":"69.9998","PERIOD":"92.735","BSTAR":"-0.01148100000000","COUNTRY_CODE":"US","LAUNCH_DATE":"2021-09-14","RA_OF_ASC_NODE":"294.9044","MEAN_MOTION_DDOT":"0.0000000000000","OBJECT_NAME":"STARLINK-3078","REV_AT_EPOCH":"369","REF_FRAME":"TEME","RCS_SIZE":"LARGE","TLE_LINE1":"1 49134U 21082E   21325.58334491 -.00657809  00000-0 -11481-1 0  9997","ARG_OF_PERICENTER":"276.0248","OBJECT_ID":"2021-082E","SITE":"AFWTR","CLASSIFICATION_TYPE":"U","PERIAPSIS":"406.186","EPHEMERIS_TYPE":"0","DECAY_DATE":null,"SEMIMAJOR_AXIS":"6786.667","MEAN_ELEMENT_THEORY":"SGP4","ECCENTRICITY":"0.00034560","NORAD_CAT_ID":"49134","GP_ID":"190205393","FILE":"3220686","ELEMENT_SET_NO":"999"},{"LAUNCH_DATE":"2021-09-14","COUNTRY_CODE":"US","BSTAR":"-0.00023235000000","TLE_LINE1":"1 49135U 21082F   21325.58334491 -.00027878  00000-0 -23235-3 0  9997","RCS_SIZE":"LARGE","REF_FRAME":"TEME","REV_AT_EPOCH":"369","MEAN_MOTION_DDOT":"0.0000000000000","OBJECT_NAME":"STARLINK-3073","RA_OF_ASC_NODE":"294.4583","EPOCH":"2021-11-21T14:00:01.000224","MEAN_ANOMALY":"172.4420","TIME_SYSTEM":"UTC","MEAN_MOTION":"15.69763523","TLE_LINE2":"2 49135  69.9984 294.4583 0003960 287.2737 172.4420 15.69763523  3693","PERIOD":"91.734","INCLINATION":"69.9984","OBJECT_TYPE":"PAYLOAD","APOAPSIS":"362.244","CENTER_NAME":"EARTH","MEAN_MOTION_DOT":"-0.00027878","ECCENTRICITY":"0.00039600","MEAN_ELEMENT_THEORY":"SGP4","SEMIMAJOR_AXIS":"6737.711","DECAY_DATE":null,"ELEMENT_SET_NO":"999","FILE":"3220686","GP_ID":"190206276","NORAD_CAT_ID":"49135","SITE":"AFWTR","OBJECT_ID":"2021-082F","ARG_OF_PERICENTER":"287.2737","EPHEMERIS_TYPE":"0","PERIAPSIS":"356.907","CLASSIFICATION_TYPE":"U"},{"BSTAR":"-0.00022937000000","COUNTRY_CODE":"US","LAUNCH_DATE":"2021-09-14","RA_OF_ASC_NODE":"294.4663","MEAN_MOTION_DDOT":"0.0000000000000","OBJECT_NAME":"STARLINK-3084","REV_AT_EPOCH":"369","REF_FRAME":"TEME","RCS_SIZE":"LARGE","TLE_LINE1":"1 49136U 21082G   21325.58334491 -.00027521  00000-0 -22937-3 0  9991","MEAN_MOTION":"15.69763560","TLE_LINE2":"2 49136  69.9992 294.4663 0003498 285.1889 172.3361 15.69763560  3697","TIME_SYSTEM":"UTC","MEAN_ANOMALY":"172.3361","EPOCH":"2021-11-21T14:00:01.000224","MEAN_MOTION_DOT":"-0.00027521","APOAPSIS":"361.932","CENTER_NAME":"EARTH","OBJECT_TYPE":"PAYLOAD","INCLINATION":"69.9992","PERIOD":"91.734","DECAY_DATE":null,"SEMIMAJOR_AXIS":"6737.710","MEAN_ELEMENT_THEORY":"SGP4","ECCENTRICITY":"0.00034980","NORAD_CAT_ID":"49136","GP_ID":"190205519","FILE":"3220686","ELEMENT_SET_NO":"999","ARG_OF_PERICENTER":"285.1889","OBJECT_ID":"2021-082G","SITE":"AFWTR","CLASSIFICATION_TYPE":"U","PERIAPSIS":"357.219","EPHEMERIS_TYPE":"0"},{"ELEMENT_SET_NO":"999","FILE":"3220686","GP_ID":"190206149","NORAD_CAT_ID":"49137","MEAN_ELEMENT_THEORY":"SGP4","ECCENTRICITY":"0.00039850","DECAY_DATE":null,"SEMIMAJOR_AXIS":"6737.692","PERIAPSIS":"356.872","EPHEMERIS_TYPE":"0","CLASSIFICATION_TYPE":"U","SITE":"AFWTR","OBJECT_ID":"2021-082H","ARG_OF_PERICENTER":"284.6031","TLE_LINE1":"1 49137U 21082H   21325.58334491 -.00028888  00000-0 -24080-3 0  9990","REF_FRAME":"TEME","RCS_SIZE":"LARGE","OBJECT_NAME":"STARLINK-3055","MEAN_MOTION_DDOT":"0.0000000000000","REV_AT_EPOCH":"369","RA_OF_ASC_NODE":"294.4568","LAUNCH_DATE":"2021-09-14","BSTAR":"-0.00024080000000","COUNTRY_CODE":"US","PERIOD":"91.733","OBJECT_TYPE":"PAYLOAD","INCLINATION":"69.9984","MEAN_MOTION_DOT":"-0.00028888","APOAPSIS":"362.242","CENTER_NAME":"EARTH","EPOCH":"2021-11-21T14:00:01.000224","TIME_SYSTEM":"UTC","MEAN_ANOMALY":"176.9422","MEAN_MOTION":"15.69770086","TLE_LINE2":"2 49137  69.9984 294.4568 0003985 284.6031 176.9422 15.69770086  3696"},{"ARG_OF_PERICENTER":"274.9124","OBJECT_ID":"2021-082J","SITE":"AFWTR","CLASSIFICATION_TYPE":"U","PERIAPSIS":"407.357","EPHEMERIS_TYPE":"0","DECAY_DATE":null,"SEMIMAJOR_AXIS":"6787.750","MEAN_ELEMENT_THEORY":"SGP4","ECCENTRICITY":"0.00033270","NORAD_CAT_ID":"49138","GP_ID":"190211453","FILE":"3220919","ELEMENT_SET_NO":"999","MEAN_MOTION":"15.52436915","TLE_LINE2":"2 49138  70.0003 293.9892 0003327 274.9124 251.7293 15.52436915 10880","TIME_SYSTEM":"UTC","MEAN_ANOMALY":"251.7293","EPOCH":"2021-11-21T22:00:00.999936","MEAN_MOTION_DOT":"-0.00656348","APOAPSIS":"411.874","CENTER_NAME":"EARTH","INCLINATION":"70.0003","OBJECT_TYPE":"PAYLOAD","PERIOD":"92.757","BSTAR":"-0.01160900000000","COUNTRY_CODE":"US","LAUNCH_DATE":"2021-09-14","RA_OF_ASC_NODE":"293.9892","OBJECT_NAME":"STARLINK-3058","MEAN_MOTION_DDOT":"0.0000000000000","REV_AT_EPOCH":"1088","REF_FRAME":"TEME","RCS_SIZE":"LARGE","TLE_LINE1":"1 49138U 21082J   21325.91667824 -.00656348  00000-0 -11609-1 0  9996"}];
